{"features":[{"properties":{"osm_id":2279623,"shapeName":"Oshana","source":"OpenStreetMap contributors (ODbL)"},"type":"Feature","geometry":{"type":"Polygon","coordinates":[[[15.2790435,-18.0324239],[15.2885197,-18.0422718],[15.3004914,-18.048476],[15.3055467,-18.0481509],[15.3109056,-18.0529064],[15.3147122,-18.0498826],[15.317769,-18.0514054],[15.3308064,-18.071983],[15.3420529,-18.0782461],[15.3462804,-18.0766216],[15.3698379,-18.0850675],[15.3803805,-18.082962],[15.3899384,-18.0935737],[15.4027477,-18.0872935],[15.4089966,-18.0927903],[15.4140973,-18.1036874],[15.4182456,-18.1044856],[15.4241598,-18.099623],[15.4366666,-18.1050762],[15.4480078,-18.1170912],[15.4542433,-18.1173042],[15.4543627,-18.1104381],[15.4614804,-18.1090596],[15.4656995,-18.1121063],[15.4652021,-18.1182838],[15.4722112,-18.1217137],[15.4729638,-18.1289911],[15.4765549,-18.1306295],[15.4803815,-18.1280454],[15.4843336,-18.1343492],[15.4935917,-18.1381691],[15.4991239,-18.1465663],[15.565043,-18.6606282],[15.5468314,-18.6550455],[15.5041481,-18.7370751],[15.5060164,-18.7488401],[15.5635605,-18.8798105],[15.5611397,-18.9369897],[15.5387415,-18.9630546],[15.5143652,-18.9819395],[15.5207266,-18.9963004],[15.5570294,-19.0418584],[15.5710996,-19.0490631],[15.5889666,-19.0495486],[15.6026864,-19.0634927],[15.5908242,-19.0752534],[15.56214,-19.0734401],[15.5041667,-19.0915868],[15.4716702,-19.1074313],[15.4736642,-19.1133554],[15.4208021,-19.1298398],[15.4125607,-19.1456339],[15.4023436,-19.1381145],[15.3502109,-19.1508272],[15.324594,-19.1617928],[15.321865,-19.1813732],[15.3172732,-19.1915584],[15.3141042,-19.2462587],[15.3697808,-19.2478398],[15.4202264,-19.2391244],[15.5103785,-19.2457405],[15.5508136,-19.2358851],[15.5604386,-19.2456938],[15.7617872,-19.2846789],[15.8505329,-19.2839156],[15.9403873,-19.3312987],[15.944568,-19.3161682],[15.9314163,-19.2854449],[15.9328331,-19.2659917],[15.9276406,-19.2535279],[15.921677,-19.2186891],[15.9235138,-19.2045423],[15.917407,-19.1901168],[15.9205876,-19.1766501],[15.93577,-19.173959],[15.9529056,-19.1653458],[15.9607827,-19.1547128],[15.9718541,-19.1495178],[15.9681366,-19.1356125],[15.9729733,-19.1245696],[15.9612464,-19.1278559],[15.9582294,-19.1365845],[15.9541681,-19.1391887],[15.9285237,-19.1161542],[15.9272889,-19.1120468],[15.9195971,-19.1078048],[15.9185537,-19.0971254],[15.9090937,-19.0862598],[15.900261,-19.0658254],[15.8792462,-19.0333953],[15.8758935,-19.0160121],[15.8779797,-19.0091296],[15.8571708,-18.9720283],[15.8548456,-18.9451221],[15.84954,-18.9388595],[15.8421673,-18.9100195],[15.8404507,-18.8703901],[15.8433289,-18.8469888],[15.8574927,-18.8078192],[15.8796494,-18.7706564],[15.9149337,-18.727902],[15.9769783,-18.6863164],[15.9965928,-18.659435],[16.0071064,-18.6661276],[16.0184126,-18.6677057],[16.021438,-18.6716652],[16.0189467,-18.6745737],[16.0272059,-18.6794579],[16.0258669,-18.6559443],[16.0219466,-18.6494844],[16.0241621,-18.6441457],[16.0161352,-18.6310366],[16.0139251,-18.620463],[16.0220391,-18.5920328],[16.0155559,-18.5809384],[16.0046215,-18.5730478],[15.995509,-18.5718465],[15.9901822,-18.5749891],[15.9797289,-18.5701278],[15.9776509,-18.5598606],[15.9925157,-18.5451962],[15.9896296,-18.537763],[15.9847587,-18.5348029],[15.9860355,-18.5312781],[15.9828275,-18.5271887],[15.9756017,-18.5298031],[15.9673834,-18.5281857],[15.9719217,-18.5229059],[15.958693,-18.5114354],[15.9549862,-18.5107182],[15.9500465,-18.5156898],[15.9430557,-18.5113846],[15.9408637,-18.5051832],[15.944244,-18.4975681],[15.9469487,-18.5004572],[15.9474921,-18.4946632],[15.9601896,-18.4861981],[15.9550107,-18.4853546],[15.9558552,-18.4801662],[15.9515047,-18.4747323],[15.9477362,-18.4745873],[15.9483263,-18.4717889],[15.9331664,-18.4675938],[15.9340195,-18.4620849],[15.9383619,-18.4627599],[15.9373614,-18.4573052],[15.9492731,-18.4584323],[15.9455609,-18.4419933],[15.9534842,-18.4347567],[15.9499705,-18.4332401],[15.9472722,-18.4133733],[15.9612471,-18.4022556],[15.9572144,-18.399399],[15.958082,-18.3958143],[15.9493992,-18.3934152],[15.9454483,-18.3877546],[15.9401536,-18.387859],[15.9365809,-18.3839163],[15.958371,-18.3839857],[15.9543601,-18.3770235],[15.9490711,-18.3500672],[15.9455295,-18.3061741],[15.9778538,-18.2844747],[15.9863333,-18.2622351],[16.0175466,-18.2303171],[16.0336519,-18.1891119],[16.0364002,-18.1732334],[16.0393282,-18.105439],[16.031699,-18.0617466],[16.0257347,-18.04121],[16.0089706,-18.020644],[16.0047664,-18.0190443],[16.0020459,-18.0215553],[15.9998811,-18.0169122],[16.0002371,-17.689037],[15.652371,-17.6723616],[15.6405812,-17.6883216],[15.2790435,-18.0324239]]]}}],"type":"FeatureCollection"}
